<?xml version="1.0" encoding="UTF-8"?>
<gpx creator="Wikiloc - https://www.wikiloc.com" version="1.1" xmlns="http://www.topografix.com/GPX/1/1" xmlns:xsi="http://www.w3.org/2001/XMLSchema-instance" xsi:schemaLocation="http://www.topografix.com/GPX/1/1 http://www.topografix.com/GPX/1/1/gpx.xsd">
  <metadata>
    <name>Wikiloc - Balandrau per Coma de Vaca</name>
    <link href="https://www.wikiloc.com/hiking-trails/balandrau-per-coma-de-vaca-75781504">
      <text>Balandrau per Coma de Vaca - Wikiloc on Wikiloc</text>
    </link>
    <time>2021-06-13T13:55:02Z</time>
  </metadata>
  <trk>
    <name>Balandrau per Coma de Vaca - Wikiloc</name>
    <cmt></cmt>
    <desc></desc>
    <trkseg>
      <trkpt lat="42.342920" lon="2.182983">
        <ele>1409.553</ele>
        <time>2021-06-13T07:34:22Z</time>
      </trkpt>
      <trkpt lat="42.342857" lon="2.182614">
        <ele>1409.504</ele>
        <time>2021-06-13T07:34:59Z</time>
      </trkpt>
      <trkpt lat="42.342264" lon="2.181828">
        <ele>1397.714</ele>
        <time>2021-06-13T07:36:52Z</time>
      </trkpt>
      <trkpt lat="42.342022" lon="2.181222">
        <ele>1392.908</ele>
        <time>2021-06-13T07:37:59Z</time>
      </trkpt>
      <trkpt lat="42.342208" lon="2.180034">
        <ele>1391.342</ele>
        <time>2021-06-13T07:40:01Z</time>
      </trkpt>
      <trkpt lat="42.343518" lon="2.178802">
        <ele>1383.610</ele>
        <time>2021-06-13T07:43:33Z</time>
      </trkpt>
      <trkpt lat="42.344375" lon="2.178545">
        <ele>1393.152</ele>
        <time>2021-06-13T07:45:30Z</time>
      </trkpt>
      <trkpt lat="42.345134" lon="2.178030">
        <ele>1404.283</ele>
        <time>2021-06-13T07:47:24Z</time>
      </trkpt>
      <trkpt lat="42.346155" lon="2.176878">
        <ele>1389.956</ele>
        <time>2021-06-13T07:50:22Z</time>
      </trkpt>
      <trkpt lat="42.346595" lon="2.176886">
        <ele>1386.480</ele>
        <time>2021-06-13T07:51:22Z</time>
      </trkpt>
      <trkpt lat="42.346945" lon="2.177062">
        <ele>1381.645</ele>
        <time>2021-06-13T07:52:12Z</time>
      </trkpt>
      <trkpt lat="42.349438" lon="2.178583">
        <ele>1384.589</ele>
        <time>2021-06-13T07:57:00Z</time>
      </trkpt>
      <trkpt lat="42.349799" lon="2.178504">
        <ele>1381.588</ele>
        <time>2021-06-13T07:57:35Z</time>
      </trkpt>
      <trkpt lat="42.350040" lon="2.178661">
        <ele>1386.924</ele>
        <time>2021-06-13T07:58:28Z</time>
      </trkpt>
      <trkpt lat="42.350369" lon="2.178398">
        <ele>1374.226</ele>
        <time>2021-06-13T07:59:04Z</time>
      </trkpt>
      <trkpt lat="42.350712" lon="2.178356">
        <ele>1368.808</ele>
        <time>2021-06-13T07:59:36Z</time>
      </trkpt>
      <trkpt lat="42.351067" lon="2.178720">
        <ele>1388.275</ele>
        <time>2021-06-13T08:00:21Z</time>
      </trkpt>
      <trkpt lat="42.352611" lon="2.178188">
        <ele>1376.133</ele>
        <time>2021-06-13T08:03:00Z</time>
      </trkpt>
      <trkpt lat="42.353515" lon="2.178410">
        <ele>1403.725</ele>
        <time>2021-06-13T08:04:26Z</time>
      </trkpt>
      <trkpt lat="42.354450" lon="2.177367">
        <ele>1377.566</ele>
        <time>2021-06-13T08:06:33Z</time>
      </trkpt>
      <trkpt lat="42.355824" lon="2.176511">
        <ele>1340.149</ele>
        <time>2021-06-13T08:08:53Z</time>
      </trkpt>
      <trkpt lat="42.356435" lon="2.175030">
        <ele>1282.333</ele>
        <time>2021-06-13T08:11:43Z</time>
      </trkpt>
      <trkpt lat="42.356674" lon="2.174928">
        <ele>1269.668</ele>
        <time>2021-06-13T08:12:16Z</time>
      </trkpt>
      <trkpt lat="42.356804" lon="2.175077">
        <ele>1265.372</ele>
        <time>2021-06-13T08:12:41Z</time>
      </trkpt>
      <trkpt lat="42.356812" lon="2.174937">
        <ele>1261.923</ele>
        <time>2021-06-13T08:13:02Z</time>
      </trkpt>
      <trkpt lat="42.357230" lon="2.174886">
        <ele>1236.383</ele>
        <time>2021-06-13T08:14:00Z</time>
      </trkpt>
      <trkpt lat="42.357536" lon="2.175125">
        <ele>1226.011</ele>
        <time>2021-06-13T08:14:36Z</time>
      </trkpt>
      <trkpt lat="42.357863" lon="2.175657">
        <ele>1244.308</ele>
        <time>2021-06-13T08:15:19Z</time>
      </trkpt>
      <trkpt lat="42.358199" lon="2.177015">
        <ele>1282.449</ele>
        <time>2021-06-13T08:16:46Z</time>
      </trkpt>
      <trkpt lat="42.358475" lon="2.177360">
        <ele>1302.717</ele>
        <time>2021-06-13T08:17:14Z</time>
      </trkpt>
      <trkpt lat="42.358925" lon="2.176750">
        <ele>1301.789</ele>
        <time>2021-06-13T08:18:27Z</time>
      </trkpt>
      <trkpt lat="42.359291" lon="2.175719">
        <ele>1263.620</ele>
        <time>2021-06-13T08:19:43Z</time>
      </trkpt>
      <trkpt lat="42.359456" lon="2.175601">
        <ele>1253.393</ele>
        <time>2021-06-13T08:19:58Z</time>
      </trkpt>
      <trkpt lat="42.359507" lon="2.176185">
        <ele>1279.687</ele>
        <time>2021-06-13T08:20:54Z</time>
      </trkpt>
      <trkpt lat="42.359743" lon="2.176111">
        <ele>1270.532</ele>
        <time>2021-06-13T08:21:26Z</time>
      </trkpt>
      <trkpt lat="42.359930" lon="2.176201">
        <ele>1270.856</ele>
        <time>2021-06-13T08:21:48Z</time>
      </trkpt>
      <trkpt lat="42.360794" lon="2.176937">
        <ele>1287.057</ele>
        <time>2021-06-13T08:23:38Z</time>
      </trkpt>
      <trkpt lat="42.362060" lon="2.178319">
        <ele>1360.600</ele>
        <time>2021-06-13T08:28:15Z</time>
      </trkpt>
      <trkpt lat="42.363034" lon="2.178080">
        <ele>1329.120</ele>
        <time>2021-06-13T08:30:05Z</time>
      </trkpt>
      <trkpt lat="42.363714" lon="2.178504">
        <ele>1302.508</ele>
        <time>2021-06-13T08:31:15Z</time>
      </trkpt>
      <trkpt lat="42.363895" lon="2.178837">
        <ele>1300.422</ele>
        <time>2021-06-13T08:31:41Z</time>
      </trkpt>
      <trkpt lat="42.364064" lon="2.179749">
        <ele>1326.480</ele>
        <time>2021-06-13T08:32:48Z</time>
      </trkpt>
      <trkpt lat="42.364613" lon="2.180600">
        <ele>1343.362</ele>
        <time>2021-06-13T08:34:03Z</time>
      </trkpt>
      <trkpt lat="42.364859" lon="2.181822">
        <ele>1398.583</ele>
        <time>2021-06-13T08:35:29Z</time>
      </trkpt>
      <trkpt lat="42.365525" lon="2.181929">
        <ele>1397.546</ele>
        <time>2021-06-13T08:36:28Z</time>
      </trkpt>
      <trkpt lat="42.365848" lon="2.181616">
        <ele>1379.140</ele>
        <time>2021-06-13T08:37:03Z</time>
      </trkpt>
      <trkpt lat="42.366273" lon="2.181469">
        <ele>1350.665</ele>
        <time>2021-06-13T08:37:38Z</time>
      </trkpt>
      <trkpt lat="42.367217" lon="2.182552">
        <ele>1359.329</ele>
        <time>2021-06-13T08:39:20Z</time>
      </trkpt>
      <trkpt lat="42.367770" lon="2.183707">
        <ele>1367.883</ele>
        <time>2021-06-13T08:40:41Z</time>
      </trkpt>
      <trkpt lat="42.368025" lon="2.184771">
        <ele>1398.925</ele>
        <time>2021-06-13T08:41:52Z</time>
      </trkpt>
      <trkpt lat="42.368555" lon="2.184595">
        <ele>1380.717</ele>
        <time>2021-06-13T08:42:47Z</time>
      </trkpt>
      <trkpt lat="42.370024" lon="2.185241">
        <ele>1351.508</ele>
        <time>2021-06-13T08:44:50Z</time>
      </trkpt>
      <trkpt lat="42.370275" lon="2.186076">
        <ele>1369.995</ele>
        <time>2021-06-13T08:45:43Z</time>
      </trkpt>
      <trkpt lat="42.370516" lon="2.186438">
        <ele>1375.263</ele>
        <time>2021-06-13T08:46:15Z</time>
      </trkpt>
      <trkpt lat="42.371373" lon="2.186920">
        <ele>1389.695</ele>
        <time>2021-06-13T08:47:27Z</time>
      </trkpt>
      <trkpt lat="42.371728" lon="2.187777">
        <ele>1395.346</ele>
        <time>2021-06-13T08:48:31Z</time>
      </trkpt>
      <trkpt lat="42.372123" lon="2.188218">
        <ele>1412.039</ele>
        <time>2021-06-13T08:49:13Z</time>
      </trkpt>
      <trkpt lat="42.372461" lon="2.188417">
        <ele>1418.263</ele>
        <time>2021-06-13T08:49:42Z</time>
      </trkpt>
      <trkpt lat="42.372842" lon="2.188872">
        <ele>1436.078</ele>
        <time>2021-06-13T08:50:32Z</time>
      </trkpt>
      <trkpt lat="42.373350" lon="2.188885">
        <ele>1469.942</ele>
        <time>2021-06-13T08:53:04Z</time>
      </trkpt>
      <trkpt lat="42.373571" lon="2.189056">
        <ele>1478.853</ele>
        <time>2021-06-13T08:53:54Z</time>
      </trkpt>
      <trkpt lat="42.373820" lon="2.189463">
        <ele>1483.504</ele>
        <time>2021-06-13T08:54:48Z</time>
      </trkpt>
      <trkpt lat="42.374126" lon="2.189497">
        <ele>1502.614</ele>
        <time>2021-06-13T08:55:51Z</time>
      </trkpt>
      <trkpt lat="42.373977" lon="2.189656">
        <ele>1489.108</ele>
        <time>2021-06-13T08:56:07Z</time>
      </trkpt>
      <trkpt lat="42.374123" lon="2.189601">
        <ele>1499.972</ele>
        <time>2021-06-13T08:56:34Z</time>
      </trkpt>
      <trkpt lat="42.374061" lon="2.189544">
        <ele>1497.170</ele>
        <time>2021-06-13T08:59:07Z</time>
      </trkpt>
      <trkpt lat="42.374323" lon="2.189665">
        <ele>1510.812</ele>
        <time>2021-06-13T08:59:41Z</time>
      </trkpt>
      <trkpt lat="42.374395" lon="2.189925">
        <ele>1509.513</ele>
        <time>2021-06-13T09:00:06Z</time>
      </trkpt>
      <trkpt lat="42.374545" lon="2.190003">
        <ele>1517.716</ele>
        <time>2021-06-13T09:00:18Z</time>
      </trkpt>
      <trkpt lat="42.374361" lon="2.190414">
        <ele>1498.330</ele>
        <time>2021-06-13T09:00:48Z</time>
      </trkpt>
      <trkpt lat="42.374382" lon="2.190691">
        <ele>1494.685</ele>
        <time>2021-06-13T09:01:10Z</time>
      </trkpt>
      <trkpt lat="42.374556" lon="2.190772">
        <ele>1506.969</ele>
        <time>2021-06-13T09:01:36Z</time>
      </trkpt>
      <trkpt lat="42.374520" lon="2.191471">
        <ele>1496.294</ele>
        <time>2021-06-13T09:02:22Z</time>
      </trkpt>
      <trkpt lat="42.374728" lon="2.192000">
        <ele>1506.957</ele>
        <time>2021-06-13T09:03:11Z</time>
      </trkpt>
      <trkpt lat="42.374764" lon="2.192530">
        <ele>1505.522</ele>
        <time>2021-06-13T09:03:43Z</time>
      </trkpt>
      <trkpt lat="42.375307" lon="2.193769">
        <ele>1522.708</ele>
        <time>2021-06-13T09:05:32Z</time>
      </trkpt>
      <trkpt lat="42.375241" lon="2.193979">
        <ele>1514.656</ele>
        <time>2021-06-13T09:05:49Z</time>
      </trkpt>
      <trkpt lat="42.375366" lon="2.194072">
        <ele>1521.664</ele>
        <time>2021-06-13T09:06:13Z</time>
      </trkpt>
      <trkpt lat="42.375250" lon="2.194266">
        <ele>1513.366</ele>
        <time>2021-06-13T09:06:33Z</time>
      </trkpt>
      <trkpt lat="42.375407" lon="2.194487">
        <ele>1524.947</ele>
        <time>2021-06-13T09:07:18Z</time>
      </trkpt>
      <trkpt lat="42.375924" lon="2.194200">
        <ele>1558.170</ele>
        <time>2021-06-13T09:08:14Z</time>
      </trkpt>
      <trkpt lat="42.375856" lon="2.194835">
        <ele>1550.954</ele>
        <time>2021-06-13T09:09:04Z</time>
      </trkpt>
      <trkpt lat="42.376089" lon="2.195059">
        <ele>1567.949</ele>
        <time>2021-06-13T09:09:41Z</time>
      </trkpt>
      <trkpt lat="42.376503" lon="2.195061">
        <ele>1598.463</ele>
        <time>2021-06-13T09:10:39Z</time>
      </trkpt>
      <trkpt lat="42.376673" lon="2.195903">
        <ele>1616.922</ele>
        <time>2021-06-13T09:11:51Z</time>
      </trkpt>
      <trkpt lat="42.376456" lon="2.196853">
        <ele>1603.862</ele>
        <time>2021-06-13T09:12:54Z</time>
      </trkpt>
      <trkpt lat="42.376355" lon="2.198205">
        <ele>1591.908</ele>
        <time>2021-06-13T09:14:33Z</time>
      </trkpt>
      <trkpt lat="42.376607" lon="2.199150">
        <ele>1607.508</ele>
        <time>2021-06-13T09:15:46Z</time>
      </trkpt>
      <trkpt lat="42.376679" lon="2.200334">
        <ele>1610.599</ele>
        <time>2021-06-13T09:17:32Z</time>
      </trkpt>
      <trkpt lat="42.376120" lon="2.200825">
        <ele>1590.857</ele>
        <time>2021-06-13T09:23:42Z</time>
      </trkpt>
      <trkpt lat="42.376053" lon="2.201077">
        <ele>1589.899</ele>
        <time>2021-06-13T09:24:14Z</time>
      </trkpt>
      <trkpt lat="42.376209" lon="2.203140">
        <ele>1626.560</ele>
        <time>2021-06-13T09:27:45Z</time>
      </trkpt>
      <trkpt lat="42.376424" lon="2.203453">
        <ele>1646.243</ele>
        <time>2021-06-13T09:28:34Z</time>
      </trkpt>
      <trkpt lat="42.376252" lon="2.203790">
        <ele>1651.657</ele>
        <time>2021-06-13T09:29:26Z</time>
      </trkpt>
      <trkpt lat="42.375734" lon="2.203648">
        <ele>1631.072</ele>
        <time>2021-06-13T09:30:41Z</time>
      </trkpt>
      <trkpt lat="42.375963" lon="2.204061">
        <ele>1649.676</ele>
        <time>2021-06-13T09:31:38Z</time>
      </trkpt>
      <trkpt lat="42.375583" lon="2.203905">
        <ele>1644.897</ele>
        <time>2021-06-13T09:32:32Z</time>
      </trkpt>
      <trkpt lat="42.376039" lon="2.204583">
        <ele>1671.423</ele>
        <time>2021-06-13T09:34:11Z</time>
      </trkpt>
      <trkpt lat="42.376021" lon="2.204705">
        <ele>1674.925</ele>
        <time>2021-06-13T09:34:32Z</time>
      </trkpt>
      <trkpt lat="42.375681" lon="2.204653">
        <ele>1669.708</ele>
        <time>2021-06-13T09:35:10Z</time>
      </trkpt>
      <trkpt lat="42.376035" lon="2.205080">
        <ele>1688.186</ele>
        <time>2021-06-13T09:36:14Z</time>
      </trkpt>
      <trkpt lat="42.375695" lon="2.205186">
        <ele>1687.324</ele>
        <time>2021-06-13T09:36:58Z</time>
      </trkpt>
      <trkpt lat="42.375666" lon="2.205576">
        <ele>1699.316</ele>
        <time>2021-06-13T09:38:19Z</time>
      </trkpt>
      <trkpt lat="42.375425" lon="2.205597">
        <ele>1706.687</ele>
        <time>2021-06-13T09:38:54Z</time>
      </trkpt>
      <trkpt lat="42.375799" lon="2.205911">
        <ele>1705.910</ele>
        <time>2021-06-13T09:39:47Z</time>
      </trkpt>
      <trkpt lat="42.376034" lon="2.206510">
        <ele>1730.524</ele>
        <time>2021-06-13T09:40:58Z</time>
      </trkpt>
      <trkpt lat="42.376060" lon="2.206642">
        <ele>1735.189</ele>
        <time>2021-06-13T09:41:14Z</time>
      </trkpt>
      <trkpt lat="42.375798" lon="2.206535">
        <ele>1730.043</ele>
        <time>2021-06-13T09:41:53Z</time>
      </trkpt>
      <trkpt lat="42.376007" lon="2.207103">
        <ele>1754.729</ele>
        <time>2021-06-13T09:43:02Z</time>
      </trkpt>
      <trkpt lat="42.376176" lon="2.207246">
        <ele>1759.500</ele>
        <time>2021-06-13T09:43:23Z</time>
      </trkpt>
      <trkpt lat="42.376276" lon="2.207082">
        <ele>1752.920</ele>
        <time>2021-06-13T09:43:39Z</time>
      </trkpt>
      <trkpt lat="42.376430" lon="2.207234">
        <ele>1756.608</ele>
        <time>2021-06-13T09:44:03Z</time>
      </trkpt>
      <trkpt lat="42.376281" lon="2.207430">
        <ele>1765.119</ele>
        <time>2021-06-13T09:44:43Z</time>
      </trkpt>
      <trkpt lat="42.376512" lon="2.207546">
        <ele>1765.677</ele>
        <time>2021-06-13T09:45:31Z</time>
      </trkpt>
      <trkpt lat="42.376366" lon="2.207626">
        <ele>1772.179</ele>
        <time>2021-06-13T09:45:54Z</time>
      </trkpt>
      <trkpt lat="42.376416" lon="2.207696">
        <ele>1775.010</ele>
        <time>2021-06-13T09:46:13Z</time>
      </trkpt>
      <trkpt lat="42.376754" lon="2.207985">
        <ele>1785.133</ele>
        <time>2021-06-13T09:47:02Z</time>
      </trkpt>
      <trkpt lat="42.376938" lon="2.208355">
        <ele>1798.747</ele>
        <time>2021-06-13T09:48:30Z</time>
      </trkpt>
      <trkpt lat="42.377251" lon="2.208388">
        <ele>1797.162</ele>
        <time>2021-06-13T09:49:51Z</time>
      </trkpt>
      <trkpt lat="42.377578" lon="2.208694">
        <ele>1810.176</ele>
        <time>2021-06-13T09:50:49Z</time>
      </trkpt>
      <trkpt lat="42.377531" lon="2.208818">
        <ele>1814.173</ele>
        <time>2021-06-13T09:51:10Z</time>
      </trkpt>
      <trkpt lat="42.377877" lon="2.209207">
        <ele>1827.585</ele>
        <time>2021-06-13T09:52:02Z</time>
      </trkpt>
      <trkpt lat="42.377509" lon="2.209220">
        <ele>1831.213</ele>
        <time>2021-06-13T09:52:46Z</time>
      </trkpt>
      <trkpt lat="42.377770" lon="2.209495">
        <ele>1838.108</ele>
        <time>2021-06-13T09:53:36Z</time>
      </trkpt>
      <trkpt lat="42.377552" lon="2.209647">
        <ele>1848.634</ele>
        <time>2021-06-13T09:54:10Z</time>
      </trkpt>
      <trkpt lat="42.377542" lon="2.209901">
        <ele>1859.152</ele>
        <time>2021-06-13T09:54:51Z</time>
      </trkpt>
      <trkpt lat="42.377838" lon="2.210093">
        <ele>1856.214</ele>
        <time>2021-06-13T09:55:40Z</time>
      </trkpt>
      <trkpt lat="42.377709" lon="2.210131">
        <ele>1862.335</ele>
        <time>2021-06-13T09:56:38Z</time>
      </trkpt>
      <trkpt lat="42.377754" lon="2.210278">
        <ele>1866.118</ele>
        <time>2021-06-13T09:57:15Z</time>
      </trkpt>
      <trkpt lat="42.377615" lon="2.210258">
        <ele>1870.322</ele>
        <time>2021-06-13T09:57:35Z</time>
      </trkpt>
      <trkpt lat="42.377767" lon="2.210485">
        <ele>1873.417</ele>
        <time>2021-06-13T09:58:08Z</time>
      </trkpt>
      <trkpt lat="42.377567" lon="2.210493">
        <ele>1881.821</ele>
        <time>2021-06-13T09:58:33Z</time>
      </trkpt>
      <trkpt lat="42.377681" lon="2.210762">
        <ele>1887.291</ele>
        <time>2021-06-13T09:59:13Z</time>
      </trkpt>
      <trkpt lat="42.377418" lon="2.210815">
        <ele>1899.081</ele>
        <time>2021-06-13T09:59:53Z</time>
      </trkpt>
      <trkpt lat="42.378558" lon="2.212319">
        <ele>1910.119</ele>
        <time>2021-06-13T10:04:48Z</time>
      </trkpt>
      <trkpt lat="42.378548" lon="2.212654">
        <ele>1922.708</ele>
        <time>2021-06-13T10:05:26Z</time>
      </trkpt>
      <trkpt lat="42.378912" lon="2.213222">
        <ele>1937.936</ele>
        <time>2021-06-13T10:06:35Z</time>
      </trkpt>
      <trkpt lat="42.378986" lon="2.213657">
        <ele>1961.434</ele>
        <time>2021-06-13T10:07:19Z</time>
      </trkpt>
      <trkpt lat="42.379295" lon="2.213773">
        <ele>1961.676</ele>
        <time>2021-06-13T10:07:56Z</time>
      </trkpt>
      <trkpt lat="42.379606" lon="2.214186">
        <ele>1985.627</ele>
        <time>2021-06-13T10:08:58Z</time>
      </trkpt>
      <trkpt lat="42.379509" lon="2.214270">
        <ele>1992.460</ele>
        <time>2021-06-13T10:09:20Z</time>
      </trkpt>
      <trkpt lat="42.379262" lon="2.214105">
        <ele>1983.824</ele>
        <time>2021-06-13T10:09:46Z</time>
      </trkpt>
      <trkpt lat="42.379322" lon="2.214282">
        <ele>1994.979</ele>
        <time>2021-06-13T10:10:06Z</time>
      </trkpt>
      <trkpt lat="42.380542" lon="2.215059">
        <ele>2033.133</ele>
        <time>2021-06-13T10:13:09Z</time>
      </trkpt>
      <trkpt lat="42.380753" lon="2.214994">
        <ele>2027.867</ele>
        <time>2021-06-13T10:13:35Z</time>
      </trkpt>
      <trkpt lat="42.381620" lon="2.215202">
        <ele>1998.281</ele>
        <time>2021-06-13T10:15:09Z</time>
      </trkpt>
      <trkpt lat="42.382647" lon="2.216558">
        <ele>1990.719</ele>
        <time>2021-06-13T10:17:49Z</time>
      </trkpt>
      <trkpt lat="42.382707" lon="2.216368">
        <ele>1986.308</ele>
        <time>2021-06-13T10:18:36Z</time>
      </trkpt>
      <trkpt lat="42.382775" lon="2.216692">
        <ele>1991.953</ele>
        <time>2021-06-13T10:19:00Z</time>
      </trkpt>
      <trkpt lat="42.383458" lon="2.217907">
        <ele>1991.731</ele>
        <time>2021-06-13T10:20:52Z</time>
      </trkpt>
      <trkpt lat="42.383570" lon="2.218722">
        <ele>2000.613</ele>
        <time>2021-06-13T10:22:00Z</time>
      </trkpt>
      <trkpt lat="42.383729" lon="2.218955">
        <ele>2001.814</ele>
        <time>2021-06-13T10:22:27Z</time>
      </trkpt>
      <trkpt lat="42.383659" lon="2.219060">
        <ele>2002.627</ele>
        <time>2021-06-13T10:22:36Z</time>
      </trkpt>
      <trkpt lat="42.383866" lon="2.219221">
        <ele>2000.861</ele>
        <time>2021-06-13T10:22:57Z</time>
      </trkpt>
      <trkpt lat="42.383832" lon="2.219579">
        <ele>2003.246</ele>
        <time>2021-06-13T10:23:44Z</time>
      </trkpt>
      <trkpt lat="42.383982" lon="2.220042">
        <ele>2001.010</ele>
        <time>2021-06-13T10:30:35Z</time>
      </trkpt>
      <trkpt lat="42.383990" lon="2.220395">
        <ele>2004.127</ele>
        <time>2021-06-13T10:47:30Z</time>
      </trkpt>
      <trkpt lat="42.383544" lon="2.220811">
        <ele>2018.868</ele>
        <time>2021-06-13T10:48:44Z</time>
      </trkpt>
      <trkpt lat="42.383226" lon="2.221610">
        <ele>2027.514</ele>
        <time>2021-06-13T10:50:09Z</time>
      </trkpt>
      <trkpt lat="42.382709" lon="2.222159">
        <ele>2042.808</ele>
        <time>2021-06-13T10:51:35Z</time>
      </trkpt>
      <trkpt lat="42.382239" lon="2.222324">
        <ele>2052.289</ele>
        <time>2021-06-13T10:53:04Z</time>
      </trkpt>
      <trkpt lat="42.382156" lon="2.222530">
        <ele>2054.677</ele>
        <time>2021-06-13T10:53:35Z</time>
      </trkpt>
      <trkpt lat="42.382012" lon="2.222533">
        <ele>2057.919</ele>
        <time>2021-06-13T10:54:01Z</time>
      </trkpt>
      <trkpt lat="42.381775" lon="2.222858">
        <ele>2073.360</ele>
        <time>2021-06-13T10:55:06Z</time>
      </trkpt>
      <trkpt lat="42.381576" lon="2.222887">
        <ele>2079.133</ele>
        <time>2021-06-13T10:55:35Z</time>
      </trkpt>
      <trkpt lat="42.381501" lon="2.223177">
        <ele>2089.327</ele>
        <time>2021-06-13T10:56:22Z</time>
      </trkpt>
      <trkpt lat="42.381263" lon="2.223330">
        <ele>2097.072</ele>
        <time>2021-06-13T10:57:15Z</time>
      </trkpt>
      <trkpt lat="42.380865" lon="2.223446">
        <ele>2107.056</ele>
        <time>2021-06-13T10:58:24Z</time>
      </trkpt>
      <trkpt lat="42.380566" lon="2.223169">
        <ele>2108.439</ele>
        <time>2021-06-13T10:59:22Z</time>
      </trkpt>
      <trkpt lat="42.380023" lon="2.223419">
        <ele>2125.101</ele>
        <time>2021-06-13T11:01:27Z</time>
      </trkpt>
      <trkpt lat="42.380264" lon="2.223774">
        <ele>2128.621</ele>
        <time>2021-06-13T11:02:03Z</time>
      </trkpt>
      <trkpt lat="42.380287" lon="2.224515">
        <ele>2148.408</ele>
        <time>2021-06-13T11:03:16Z</time>
      </trkpt>
      <trkpt lat="42.380014" lon="2.225263">
        <ele>2172.170</ele>
        <time>2021-06-13T11:04:45Z</time>
      </trkpt>
      <trkpt lat="42.379379" lon="2.226018">
        <ele>2197.588</ele>
        <time>2021-06-13T11:07:21Z</time>
      </trkpt>
      <trkpt lat="42.379258" lon="2.226111">
        <ele>2200.580</ele>
        <time>2021-06-13T11:07:49Z</time>
      </trkpt>
      <trkpt lat="42.379102" lon="2.225292">
        <ele>2186.051</ele>
        <time>2021-06-13T11:09:11Z</time>
      </trkpt>
      <trkpt lat="42.379015" lon="2.225362">
        <ele>2189.964</ele>
        <time>2021-06-13T11:10:03Z</time>
      </trkpt>
      <trkpt lat="42.379160" lon="2.225111">
        <ele>2180.418</ele>
        <time>2021-06-13T11:11:41Z</time>
      </trkpt>
      <trkpt lat="42.378910" lon="2.224157">
        <ele>2177.993</ele>
        <time>2021-06-13T11:13:44Z</time>
      </trkpt>
      <trkpt lat="42.378679" lon="2.224408">
        <ele>2190.387</ele>
        <time>2021-06-13T11:15:04Z</time>
      </trkpt>
      <trkpt lat="42.378535" lon="2.224298">
        <ele>2194.725</ele>
        <time>2021-06-13T11:15:57Z</time>
      </trkpt>
      <trkpt lat="42.378482" lon="2.224376">
        <ele>2197.826</ele>
        <time>2021-06-13T11:16:38Z</time>
      </trkpt>
      <trkpt lat="42.378271" lon="2.224076">
        <ele>2202.408</ele>
        <time>2021-06-13T11:17:37Z</time>
      </trkpt>
      <trkpt lat="42.377808" lon="2.224057">
        <ele>2228.108</ele>
        <time>2021-06-13T11:19:33Z</time>
      </trkpt>
      <trkpt lat="42.377691" lon="2.223926">
        <ele>2231.239</ele>
        <time>2021-06-13T11:19:47Z</time>
      </trkpt>
      <trkpt lat="42.377216" lon="2.224029">
        <ele>2254.737</ele>
        <time>2021-06-13T11:22:19Z</time>
      </trkpt>
      <trkpt lat="42.376987" lon="2.224219">
        <ele>2267.769</ele>
        <time>2021-06-13T11:23:23Z</time>
      </trkpt>
      <trkpt lat="42.376128" lon="2.223637">
        <ele>2279.180</ele>
        <time>2021-06-13T11:28:52Z</time>
      </trkpt>
      <trkpt lat="42.376182" lon="2.223800">
        <ele>2281.943</ele>
        <time>2021-06-13T11:29:37Z</time>
      </trkpt>
      <trkpt lat="42.375941" lon="2.223311">
        <ele>2277.987</ele>
        <time>2021-06-13T11:30:57Z</time>
      </trkpt>
      <trkpt lat="42.375124" lon="2.222842">
        <ele>2322.482</ele>
        <time>2021-06-13T11:34:03Z</time>
      </trkpt>
      <trkpt lat="42.374381" lon="2.222673">
        <ele>2355.876</ele>
        <time>2021-06-13T11:37:03Z</time>
      </trkpt>
      <trkpt lat="42.374334" lon="2.222814">
        <ele>2356.089</ele>
        <time>2021-06-13T11:37:28Z</time>
      </trkpt>
      <trkpt lat="42.374284" lon="2.222583">
        <ele>2360.706</ele>
        <time>2021-06-13T11:38:20Z</time>
      </trkpt>
      <trkpt lat="42.373930" lon="2.222650">
        <ele>2373.726</ele>
        <time>2021-06-13T11:41:20Z</time>
      </trkpt>
      <trkpt lat="42.373429" lon="2.222477">
        <ele>2394.208</ele>
        <time>2021-06-13T11:43:06Z</time>
      </trkpt>
      <trkpt lat="42.372225" lon="2.222783">
        <ele>2440.675</ele>
        <time>2021-06-13T11:47:32Z</time>
      </trkpt>
      <trkpt lat="42.371272" lon="2.222072">
        <ele>2478.133</ele>
        <time>2021-06-13T11:50:43Z</time>
      </trkpt>
      <trkpt lat="42.370764" lon="2.222221">
        <ele>2492.415</ele>
        <time>2021-06-13T11:53:39Z</time>
      </trkpt>
      <trkpt lat="42.370520" lon="2.221461">
        <ele>2507.296</ele>
        <time>2021-06-13T11:55:59Z</time>
      </trkpt>
      <trkpt lat="42.369749" lon="2.220173">
        <ele>2553.989</ele>
        <time>2021-06-13T12:00:01Z</time>
      </trkpt>
      <trkpt lat="42.369833" lon="2.219734">
        <ele>2554.273</ele>
        <time>2021-06-13T12:00:57Z</time>
      </trkpt>
      <trkpt lat="42.370144" lon="2.219569">
        <ele>2543.978</ele>
        <time>2021-06-13T12:05:07Z</time>
      </trkpt>
      <trkpt lat="42.369224" lon="2.220027">
        <ele>2565.442</ele>
        <time>2021-06-13T12:14:25Z</time>
      </trkpt>
      <trkpt lat="42.369047" lon="2.219424">
        <ele>2556.926</ele>
        <time>2021-06-13T12:15:41Z</time>
      </trkpt>
      <trkpt lat="42.367275" lon="2.218811">
        <ele>2524.247</ele>
        <time>2021-06-13T12:18:39Z</time>
      </trkpt>
      <trkpt lat="42.366817" lon="2.218318">
        <ele>2514.711</ele>
        <time>2021-06-13T12:19:31Z</time>
      </trkpt>
      <trkpt lat="42.367325" lon="2.215705">
        <ele>2459.908</ele>
        <time>2021-06-13T12:22:25Z</time>
      </trkpt>
      <trkpt lat="42.367270" lon="2.215154">
        <ele>2447.449</ele>
        <time>2021-06-13T12:23:01Z</time>
      </trkpt>
      <trkpt lat="42.366954" lon="2.214460">
        <ele>2446.457</ele>
        <time>2021-06-13T12:23:50Z</time>
      </trkpt>
      <trkpt lat="42.366806" lon="2.212492">
        <ele>2440.429</ele>
        <time>2021-06-13T12:26:30Z</time>
      </trkpt>
      <trkpt lat="42.366423" lon="2.211918">
        <ele>2443.560</ele>
        <time>2021-06-13T12:28:04Z</time>
      </trkpt>
      <trkpt lat="42.366068" lon="2.211726">
        <ele>2439.573</ele>
        <time>2021-06-13T12:28:58Z</time>
      </trkpt>
      <trkpt lat="42.365721" lon="2.211101">
        <ele>2420.487</ele>
        <time>2021-06-13T12:30:12Z</time>
      </trkpt>
      <trkpt lat="42.365624" lon="2.211143">
        <ele>2418.132</ele>
        <time>2021-06-13T12:30:25Z</time>
      </trkpt>
      <trkpt lat="42.365316" lon="2.210799">
        <ele>2400.576</ele>
        <time>2021-06-13T12:31:24Z</time>
      </trkpt>
      <trkpt lat="42.364934" lon="2.210097">
        <ele>2365.527</ele>
        <time>2021-06-13T12:32:54Z</time>
      </trkpt>
      <trkpt lat="42.364269" lon="2.209529">
        <ele>2331.368</ele>
        <time>2021-06-13T12:34:35Z</time>
      </trkpt>
      <trkpt lat="42.364220" lon="2.209322">
        <ele>2324.014</ele>
        <time>2021-06-13T12:34:54Z</time>
      </trkpt>
      <trkpt lat="42.363737" lon="2.208880">
        <ele>2302.208</ele>
        <time>2021-06-13T12:36:11Z</time>
      </trkpt>
      <trkpt lat="42.363170" lon="2.208944">
        <ele>2295.059</ele>
        <time>2021-06-13T12:37:23Z</time>
      </trkpt>
      <trkpt lat="42.362705" lon="2.208230">
        <ele>2267.047</ele>
        <time>2021-06-13T12:38:50Z</time>
      </trkpt>
      <trkpt lat="42.361868" lon="2.205959">
        <ele>2182.619</ele>
        <time>2021-06-13T12:42:04Z</time>
      </trkpt>
      <trkpt lat="42.361557" lon="2.205355">
        <ele>2162.230</ele>
        <time>2021-06-13T12:43:00Z</time>
      </trkpt>
      <trkpt lat="42.361278" lon="2.205220">
        <ele>2162.063</ele>
        <time>2021-06-13T12:43:32Z</time>
      </trkpt>
      <trkpt lat="42.361163" lon="2.204851">
        <ele>2149.357</ele>
        <time>2021-06-13T12:44:12Z</time>
      </trkpt>
      <trkpt lat="42.360934" lon="2.204624">
        <ele>2145.332</ele>
        <time>2021-06-13T12:44:57Z</time>
      </trkpt>
      <trkpt lat="42.360968" lon="2.202542">
        <ele>2073.716</ele>
        <time>2021-06-13T12:48:06Z</time>
      </trkpt>
      <trkpt lat="42.360679" lon="2.201613">
        <ele>2062.363</ele>
        <time>2021-06-13T12:49:23Z</time>
      </trkpt>
      <trkpt lat="42.360315" lon="2.201197">
        <ele>2061.644</ele>
        <time>2021-06-13T12:50:05Z</time>
      </trkpt>
      <trkpt lat="42.359951" lon="2.200401">
        <ele>2050.318</ele>
        <time>2021-06-13T12:51:29Z</time>
      </trkpt>
      <trkpt lat="42.359685" lon="2.200266">
        <ele>2047.208</ele>
        <time>2021-06-13T12:52:04Z</time>
      </trkpt>
      <trkpt lat="42.359437" lon="2.199885">
        <ele>2039.353</ele>
        <time>2021-06-13T12:52:43Z</time>
      </trkpt>
      <trkpt lat="42.359290" lon="2.199124">
        <ele>2024.321</ele>
        <time>2021-06-13T12:53:25Z</time>
      </trkpt>
      <trkpt lat="42.359343" lon="2.198639">
        <ele>2011.153</ele>
        <time>2021-06-13T12:53:55Z</time>
      </trkpt>
      <trkpt lat="42.358766" lon="2.196648">
        <ele>1989.724</ele>
        <time>2021-06-13T13:01:31Z</time>
      </trkpt>
      <trkpt lat="42.358443" lon="2.196112">
        <ele>1989.927</ele>
        <time>2021-06-13T13:02:22Z</time>
      </trkpt>
      <trkpt lat="42.357974" lon="2.196002">
        <ele>1990.471</ele>
        <time>2021-06-13T13:03:29Z</time>
      </trkpt>
      <trkpt lat="42.357443" lon="2.195508">
        <ele>1976.296</ele>
        <time>2021-06-13T13:04:50Z</time>
      </trkpt>
      <trkpt lat="42.357143" lon="2.195399">
        <ele>1966.230</ele>
        <time>2021-06-13T13:05:25Z</time>
      </trkpt>
      <trkpt lat="42.357031" lon="2.195053">
        <ele>1955.574</ele>
        <time>2021-06-13T13:05:53Z</time>
      </trkpt>
      <trkpt lat="42.356880" lon="2.195122">
        <ele>1954.656</ele>
        <time>2021-06-13T13:06:20Z</time>
      </trkpt>
      <trkpt lat="42.356499" lon="2.194557">
        <ele>1929.721</ele>
        <time>2021-06-13T13:07:32Z</time>
      </trkpt>
      <trkpt lat="42.356364" lon="2.194049">
        <ele>1912.108</ele>
        <time>2021-06-13T13:08:31Z</time>
      </trkpt>
      <trkpt lat="42.355754" lon="2.193414">
        <ele>1890.114</ele>
        <time>2021-06-13T13:10:02Z</time>
      </trkpt>
      <trkpt lat="42.355215" lon="2.193347">
        <ele>1887.492</ele>
        <time>2021-06-13T13:10:52Z</time>
      </trkpt>
      <trkpt lat="42.354651" lon="2.192791">
        <ele>1865.484</ele>
        <time>2021-06-13T13:12:07Z</time>
      </trkpt>
      <trkpt lat="42.354527" lon="2.192861">
        <ele>1864.445</ele>
        <time>2021-06-13T13:12:23Z</time>
      </trkpt>
      <trkpt lat="42.354510" lon="2.192685">
        <ele>1860.998</ele>
        <time>2021-06-13T13:12:35Z</time>
      </trkpt>
      <trkpt lat="42.354014" lon="2.192315">
        <ele>1844.592</ele>
        <time>2021-06-13T13:14:11Z</time>
      </trkpt>
      <trkpt lat="42.353957" lon="2.191807">
        <ele>1832.477</ele>
        <time>2021-06-13T13:15:09Z</time>
      </trkpt>
      <trkpt lat="42.354699" lon="2.190885">
        <ele>1817.731</ele>
        <time>2021-06-13T13:16:37Z</time>
      </trkpt>
      <trkpt lat="42.354277" lon="2.190951">
        <ele>1817.432</ele>
        <time>2021-06-13T13:17:32Z</time>
      </trkpt>
      <trkpt lat="42.354077" lon="2.191111">
        <ele>1818.692</ele>
        <time>2021-06-13T13:17:55Z</time>
      </trkpt>
      <trkpt lat="42.353540" lon="2.191079">
        <ele>1804.011</ele>
        <time>2021-06-13T13:18:54Z</time>
      </trkpt>
      <trkpt lat="42.352747" lon="2.190357">
        <ele>1764.508</ele>
        <time>2021-06-13T13:20:21Z</time>
      </trkpt>
      <trkpt lat="42.352431" lon="2.190540">
        <ele>1762.490</ele>
        <time>2021-06-13T13:20:58Z</time>
      </trkpt>
      <trkpt lat="42.352043" lon="2.189837">
        <ele>1741.188</ele>
        <time>2021-06-13T13:21:55Z</time>
      </trkpt>
      <trkpt lat="42.351795" lon="2.190058">
        <ele>1743.270</ele>
        <time>2021-06-13T13:22:19Z</time>
      </trkpt>
      <trkpt lat="42.351627" lon="2.190030">
        <ele>1740.091</ele>
        <time>2021-06-13T13:22:30Z</time>
      </trkpt>
      <trkpt lat="42.351392" lon="2.189793">
        <ele>1728.554</ele>
        <time>2021-06-13T13:22:53Z</time>
      </trkpt>
      <trkpt lat="42.351302" lon="2.189322">
        <ele>1718.448</ele>
        <time>2021-06-13T13:23:26Z</time>
      </trkpt>
      <trkpt lat="42.351102" lon="2.189101">
        <ele>1710.933</ele>
        <time>2021-06-13T13:23:56Z</time>
      </trkpt>
      <trkpt lat="42.350388" lon="2.188789">
        <ele>1689.647</ele>
        <time>2021-06-13T13:25:26Z</time>
      </trkpt>
      <trkpt lat="42.349830" lon="2.188096">
        <ele>1666.597</ele>
        <time>2021-06-13T13:26:37Z</time>
      </trkpt>
      <trkpt lat="42.348957" lon="2.187431">
        <ele>1643.623</ele>
        <time>2021-06-13T13:28:31Z</time>
      </trkpt>
      <trkpt lat="42.348571" lon="2.186443">
        <ele>1620.125</ele>
        <time>2021-06-13T13:29:46Z</time>
      </trkpt>
      <trkpt lat="42.348107" lon="2.186284">
        <ele>1610.608</ele>
        <time>2021-06-13T13:30:34Z</time>
      </trkpt>
      <trkpt lat="42.347743" lon="2.185653">
        <ele>1596.876</ele>
        <time>2021-06-13T13:31:33Z</time>
      </trkpt>
      <trkpt lat="42.347602" lon="2.185104">
        <ele>1587.764</ele>
        <time>2021-06-13T13:32:12Z</time>
      </trkpt>
      <trkpt lat="42.347201" lon="2.184711">
        <ele>1575.266</ele>
        <time>2021-06-13T13:33:03Z</time>
      </trkpt>
      <trkpt lat="42.346604" lon="2.183714">
        <ele>1556.827</ele>
        <time>2021-06-13T13:34:27Z</time>
      </trkpt>
      <trkpt lat="42.346484" lon="2.183287">
        <ele>1550.440</ele>
        <time>2021-06-13T13:34:56Z</time>
      </trkpt>
      <trkpt lat="42.346268" lon="2.183257">
        <ele>1546.554</ele>
        <time>2021-06-13T13:35:21Z</time>
      </trkpt>
      <trkpt lat="42.346053" lon="2.182348">
        <ele>1532.489</ele>
        <time>2021-06-13T13:36:42Z</time>
      </trkpt>
      <trkpt lat="42.346039" lon="2.181521">
        <ele>1512.533</ele>
        <time>2021-06-13T13:37:32Z</time>
      </trkpt>
      <trkpt lat="42.346906" lon="2.180068">
        <ele>1471.723</ele>
        <time>2021-06-13T13:39:42Z</time>
      </trkpt>
      <trkpt lat="42.346892" lon="2.178927">
        <ele>1436.483</ele>
        <time>2021-06-13T13:40:54Z</time>
      </trkpt>
      <trkpt lat="42.347207" lon="2.178660">
        <ele>1420.611</ele>
        <time>2021-06-13T13:41:43Z</time>
      </trkpt>
      <trkpt lat="42.346510" lon="2.177959">
        <ele>1415.808</ele>
        <time>2021-06-13T13:43:15Z</time>
      </trkpt>
      <trkpt lat="42.346371" lon="2.176943">
        <ele>1389.529</ele>
        <time>2021-06-13T13:44:55Z</time>
      </trkpt>
      <trkpt lat="42.346224" lon="2.176987">
        <ele>1391.757</ele>
        <time>2021-06-13T13:45:09Z</time>
      </trkpt>
      <trkpt lat="42.346155" lon="2.176878">
        <ele>1389.959</ele>
        <time>2021-06-13T13:45:22Z</time>
      </trkpt>
      <trkpt lat="42.345412" lon="2.177501">
        <ele>1396.990</ele>
        <time>2021-06-13T13:46:26Z</time>
      </trkpt>
      <trkpt lat="42.344901" lon="2.178292">
        <ele>1404.223</ele>
        <time>2021-06-13T13:47:27Z</time>
      </trkpt>
      <trkpt lat="42.343989" lon="2.178743">
        <ele>1389.327</ele>
        <time>2021-06-13T13:48:57Z</time>
      </trkpt>
      <trkpt lat="42.343378" lon="2.178877">
        <ele>1383.462</ele>
        <time>2021-06-13T13:49:40Z</time>
      </trkpt>
      <trkpt lat="42.342223" lon="2.179974">
        <ele>1390.616</ele>
        <time>2021-06-13T13:51:36Z</time>
      </trkpt>
      <trkpt lat="42.342050" lon="2.180412">
        <ele>1391.194</ele>
        <time>2021-06-13T13:52:04Z</time>
      </trkpt>
      <trkpt lat="42.342032" lon="2.181290">
        <ele>1393.057</ele>
        <time>2021-06-13T13:52:54Z</time>
      </trkpt>
      <trkpt lat="42.342398" lon="2.182193">
        <ele>1397.222</ele>
        <time>2021-06-13T13:53:51Z</time>
      </trkpt>
      <trkpt lat="42.342983" lon="2.182742">
        <ele>1413.708</ele>
        <time>2021-06-13T13:54:48Z</time>
      </trkpt>
      <trkpt lat="42.342920" lon="2.182983">
        <ele>1409.576</ele>
        <time>2021-06-13T13:55:02Z</time>
      </trkpt>
    </trkseg>
  </trk></gpx>